[{"OBJECT_NAME":"OBJECT J","OBJECT_ID":"2023-085J","EPOCH":"2026-03-09T22:47:59.920512","MEAN_MOTION":15.31507187,"ECCENTRICITY":0.00067028,"INCLINATION":97.4828,"RA_OF_ASC_NODE":180.1819,"ARG_OF_PERICENTER":41.7877,"MEAN_ANOMALY":318.3875,"EPHEMERIS_TYPE":0,"CLASSIFICATION_TYPE":"U","NORAD_CAT_ID":57012,"ELEMENT_SET_NO":999,"REV_AT_EPOCH":15156,"BSTAR":0.00064525349,"MEAN_MOTION_DOT":0.00019595,"MEAN_MOTION_DDOT":0},{"OBJECT_NAME":"STARLINK-35308","OBJECT_ID":"2025-221AB","EPOCH":"2026-03-09T10:07:02.317440","MEAN_MOTION":15.30208972,"ECCENTRICITY":0.00010463,"INCLINATION":53.1576,"RA_OF_ASC_NODE":89.4942,"ARG_OF_PERICENTER":85.5307,"MEAN_ANOMALY":274.5814,"EPHEMERIS_TYPE":0,"CLASSIFICATION_TYPE":"U","NORAD_CAT_ID":65848,"ELEMENT_SET_NO":999,"REV_AT_EPOCH":2604,"BSTAR":0.00059571989,"MEAN_MOTION_DOT":0.0001733,"MEAN_MOTION_DDOT":0}]
